NORAD_CAT_ID,OBJECT_NAME,OBJECT_TYPE,EPOCH,MEAN_MOTION,ECCENTRICITY,INCLINATION,RA_OF_ASC_NODE,ARG_OF_PERICENTER,MEAN_ANOMALY,BSTAR,MEAN_MOTION_DOT,MEAN_MOTION_DDOT,TLE_LINE0,TLE_LINE1,TLE_LINE2,SEMIMAJOR_AXIS,PERIOD,APOGEE,PERIGEE,DECAYED
51874.0,STARLINK-3574,PAYLOAD,2024-08-07 20:54:33,15.08850919,0.0001569,53.2167,87.5392,93.0781,267.0391,0.00034905,5.273e-05,0.0,0 STARLINK-3574,1 51874U 22022Y   24220.87122022  .00005273  00000-0  34905-3 0  9998,2 51874  53.2167  87.5392 0001569  93.0781 267.0391 15.08850919135726,6917.847,95.437,540.797,538.627,0.0
51874.0,STARLINK-3574,PAYLOAD,2024-08-08 20:45:20,15.08839503,0.0002006,53.2165,83.0787,58.9736,301.1453,9.4347e-05,1.214e-05,0.0,0 STARLINK-3574,1 51874U 22022Y   24221.86482564  .00001214  00000-0  94347-4 0  9996,2 51874  53.2165  83.0787 0002006  58.9736 301.1453 15.08839503135871,6917.882,95.438,541.135,538.359,0.0
51874.0,STARLINK-3574,PAYLOAD,2024-08-08 22:20:43,15.08846537,0.0001658,53.2168,82.7798,77.462,282.6558,0.00018538,2.664e-05,0.0,0 STARLINK-3574,1 51874U 22022Y   24221.93106267  .00002664  00000-0  18538-3 0  9994,2 51874  53.2168  82.7798 0001658  77.4620 282.6558 15.08846537135887,6917.86,95.437,540.872,538.578,0.0
51874.0,STARLINK-3574,PAYLOAD,2024-08-08 23:56:06,15.08851728,0.0001528,53.2164,82.4809,91.5467,268.57,0.00026454,3.926e-05,0.0,0 STARLINK-3574,1 51874U 22022Y   24221.99729913  .00003926  00000-0  26454-3 0  9997,2 51874  53.2164  82.4809 0001528  91.5467 268.5700 15.08851728135896,6917.845,95.437,540.767,538.652,0.0
51874.0,STARLINK-3574,PAYLOAD,2024-08-09 07:53:02,15.08841182,0.0001473,53.2171,80.9877,105.6938,254.4216,0.00010563,1.394e-05,0.0,0 STARLINK-3574,1 51874U 22022Y   24222.32850200  .00001394  00000-0  10563-3 0  9990,2 51874  53.2171  80.9877 0001473 105.6938 254.4216 15.08841182135946,6917.877,95.437,540.761,538.723,0.0
51874.0,STARLINK-3574,PAYLOAD,2024-08-09 20:36:07,15.08851088,0.0001597,53.2165,78.615,106.1734,253.9434,0.00035231,5.325e-05,0.0,0 STARLINK-3574,1 51874U 22022Y   24222.85841736  .00005325  00000-0  35231-3 0  9999,2 51874  53.2165  78.6150 0001597 106.1734 253.9434 15.08851088136026,6917.846,95.437,540.816,538.607,0.0
51874.0,STARLINK-3574,PAYLOAD,2024-08-09 23:46:53,15.08861543,0.000131,53.2163,78.0195,86.6468,273.4674,0.00056436,8.71e-05,0.0,0 STARLINK-3574,1 51874U 22022Y   24222.99089488  .00008710  00000-0  56436-3 0  9993,2 51874  53.2163  78.0195 0001310  86.6468 273.4674 15.08861543136048,6917.815,95.436,540.586,538.773,0.0
51874.0,STARLINK-3574,PAYLOAD,2024-08-10 14:05:21,15.08839868,0.0001194,53.2159,75.3436,98.8015,261.3112,-6.1226e-07,-2.98e-06,0.0,0 STARLINK-3574,1 51874U 22022Y   24223.58705849 -.00000298  00000-0 -61226-6 0  9996,2 51874  53.2159  75.3436 0001194  98.8015 261.3112 15.08839868136132,6917.881,95.438,540.572,538.92,0.0
51874.0,STARLINK-3574,PAYLOAD,2024-08-10 20:26:54,15.088509,0.0001408,53.2154,74.1574,103.3342,256.7807,0.00024131,3.556e-05,0.0,0 STARLINK-3574,1 51874U 22022Y   24223.85201844  .00003556  00000-0  24131-3 0  9991,2 51874  53.2154  74.1574 0001408 103.3342 256.7807 15.08850900136173,6917.847,95.437,540.686,538.738,0.0
51874.0,STARLINK-3574,PAYLOAD,2024-08-11 13:56:09,15.0884192,0.0001361,53.2159,70.8848,98.793,261.3216,0.00017561,2.508e-05,0.0,0 STARLINK-3574,1 51874U 22022Y   24224.58066222  .00002508  00000-0  17561-3 0  9996,2 51874  53.2159  70.8848 0001361  98.7930 261.3216 15.08841920136283,6917.875,95.437,540.681,538.798,0.0
51874.0,STARLINK-3574,PAYLOAD,2024-08-11 20:17:41,15.088507,0.0001836,53.2142,69.6954,83.2614,276.8587,0.00039407,5.991e-05,0.0,0 STARLINK-3574,1 51874U 22022Y   24224.84562090  .00005991  00000-0  39407-3 0  9991,2 51874  53.2142  69.6954 0001836  83.2614 276.8587 15.08850700136327,6917.848,95.437,540.983,538.443,0.0
51874.0,STARLINK-3574,PAYLOAD,2024-08-12 13:46:56,15.08841578,0.0001949,53.2176,66.43,72.7303,287.3902,0.00030568,4.58e-05,0.0,0 STARLINK-3574,1 51874U 22022Y   24225.57426390  .00004580  00000-0  30568-3 0  9996,2 51874  53.2176  66.4300 0001949  72.7303 287.3902 15.08841578136430,6917.876,95.437,541.089,538.392,0.0
51874.0,STARLINK-3574,PAYLOAD,2024-08-12 20:08:27,15.08869218,0.0001152,53.216,65.2334,89.045,271.0674,0.00064405,9.985e-05,0.0,0 STARLINK-3574,1 51874U 22022Y   24225.83921224  .00009985  00000-0  64405-3 0  9992,2 51874  53.2160  65.2334 0001152  89.0450 271.0674 15.08869218136478,6917.791,95.436,540.453,538.859,0.0
51874.0,STARLINK-3574,PAYLOAD,2024-08-13 12:02:21,15.08805995,0.0001311,53.2153,62.2615,120.361,239.7512,-0.00065993,-0.00010765,0.0,0 STARLINK-3574,1 51874U 22022Y   24226.50163603 -.00010765  00000-0 -65993-3 0  9999,2 51874  53.2153  62.2615 0001311 120.3610 239.7512 15.08805995136578,6917.984,95.44,540.756,538.942,0.0
51874.0,STARLINK-3574,PAYLOAD,2024-08-13 19:59:18,15.0879583,0.000171,53.2223,60.7735,95.9809,264.1378,-0.00061757,-0.00010091,0.0,0 STARLINK-3574,1 51874U 22022Y   24226.83284961 -.00010091  00000-0 -61757-3 0  9992,2 51874  53.2223  60.7735 0001710  95.9809 264.1378 15.08795830136626,6918.015,95.44,541.063,538.697,0.0
51874.0,STARLINK-3574,PAYLOAD,2024-08-14 05:31:36,15.08832386,0.0001835,53.2209,58.9932,100.371,259.7489,0.00038816,5.894e-05,0.0,0 STARLINK-3574,1 51874U 22022Y   24227.23028523  .00005894  00000-0  38816-3 0  9990,2 51874  53.2209  58.9932 0001835 100.3710 259.7489 15.08832386136685,6917.904,95.438,541.038,538.499,0.0
51874.0,STARLINK-3574,PAYLOAD,2024-08-14 19:50:04,15.08850394,0.0001307,53.2175,56.3153,89.6371,270.477,0.00078232,0.00012188,0.0,0 STARLINK-3574,1 51874U 22022Y   24227.82643935  .00012188  00000-0  78232-3 0  9995,2 51874  53.2175  56.3153 0001307  89.6371 270.4770 15.08850394136772,6917.849,95.437,540.618,538.809,0.0
51874.0,STARLINK-3574,PAYLOAD,2024-08-14 21:25:27,15.08852459,0.0001409,53.2179,56.0176,90.6906,269.4247,0.0012394,0.00019499,0.0,0 STARLINK-3574,1 51874U 22022Y   24227.89268276  .00019499  00000-0  12394-2 0  9991,2 51874  53.2179  56.0176 0001409  90.6906 269.4247 15.08852459136789,6917.842,95.437,540.682,538.733,0.0
51874.0,STARLINK-3574,PAYLOAD,2024-08-15 05:22:23,15.08854474,0.0001302,53.2171,54.5306,85.7927,274.3214,0.00070532,0.00010959,0.0,0 STARLINK-3574,1 51874U 22022Y   24228.22387953  .00010959  00000-0  70532-3 0  9994,2 51874  53.2171  54.5306 0001302  85.7927 274.3214 15.08854474136833,6917.836,95.437,540.602,538.8,0.0
51874.0,STARLINK-3574,PAYLOAD,2024-08-16 05:13:09,15.08846202,0.0001687,53.2178,50.0696,86.837,273.2815,-8.4241e-05,-1.629e-05,0.0,0 STARLINK-3574,1 51874U 22022Y   24229.21747468 -.00001629  00000-0 -84241-4 0  9994,2 51874  53.2178  50.0696 0001687  86.8370 273.2815 15.08846202136984,6917.861,95.437,540.893,538.559,0.0
51874.0,STARLINK-3574,PAYLOAD,2024-08-16 21:07:01,15.08847835,0.0001828,53.218,47.0958,91.9958,268.1243,-3.9271e-05,-9.13e-06,0.0,0 STARLINK-3574,1 51874U 22022Y   24229.87987411 -.00000913  00000-0 -39271-4 0  9998,2 51874  53.2180  47.0958 0001828  91.9958 268.1243 15.08847835137083,6917.856,95.437,540.986,538.457,0.0
51874.0,STARLINK-3574,PAYLOAD,2024-08-18 11:16:18,15.08818796,0.0001383,53.2183,39.9595,83.9753,276.1397,-0.00019317,-3.359e-05,0.0,0 STARLINK-3574,1 51874U 22022Y   24231.46965520 -.00003359  00000-0 -19317-3 0  9998,2 51874  53.2183  39.9595 0001383  83.9753 276.1397 15.08818796137323,6917.945,95.439,540.767,538.853,0.0
51874.0,STARLINK-3574,PAYLOAD,2024-08-18 17:37:49,15.08837192,6.69e-05,53.2198,38.7639,116.4866,243.6195,0.00017398,2.482e-05,0.0,0 STARLINK-3574,1 51874U 22022Y   24231.73460031  .00002482  00000-0  17398-3 0  9996,2 51874  53.2198  38.7639 0000669 116.4866 243.6195 15.08837192137368,6917.889,95.438,540.217,539.291,0.0
51874.0,STARLINK-3574,PAYLOAD,2024-08-19 04:45:31,15.08838085,0.0001314,53.219,36.6828,132.0582,228.0523,0.00011691,1.573e-05,0.0,0 STARLINK-3574,1 51874U 22022Y   24232.19828299  .00001573  00000-0  11691-3 0  9991,2 51874  53.2190  36.6828 0001314 132.0582 228.0523 15.08838085137436,6917.886,95.438,540.66,538.842,0.0
51874.0,STARLINK-3574,PAYLOAD,2024-08-20 10:57:50,15.08835985,0.000106,53.2183,31.0382,92.7179,267.3935,0.00035783,5.411e-05,0.0,0 STARLINK-3574,1 51874U 22022Y   24233.45683793  .00005411  00000-0  35783-3 0  9992,2 51874  53.2183  31.0382 0001060  92.7179 267.3935 15.08835985137624,6917.893,95.438,540.491,539.024,0.0
51874.0,STARLINK-3574,PAYLOAD,2024-08-20 14:08:35,15.08913311,5.28e-05,53.2188,30.4431,105.4533,254.6517,-0.00071628,-0.00011692,0.0,0 STARLINK-3574,1 51874U 22022Y   24233.58930226 -.00011692  00000-0 -71628-3 0  9990,2 51874  53.2188  30.4431 0000528 105.4533 254.6517 15.08913311137648,6917.656,95.433,539.887,539.156,0.0
51874.0,STARLINK-3574,PAYLOAD,2024-08-21 13:59:24,15.08844665,0.0001316,53.2184,25.9809,102.9107,257.2032,-5.0204e-05,-1.087e-05,0.0,0 STARLINK-3574,1 51874U 22022Y   24234.58292073 -.00001087  00000-0 -50204-4 0  9997,2 51874  53.2184  25.9809 0001316 102.9107 257.2032 15.08844665137799,6917.866,95.437,540.642,538.821,0.0
51874.0,STARLINK-3574,PAYLOAD,2024-08-21 15:34:47,15.08844494,0.0001286,53.2187,25.685,102.5034,257.6102,-4.636e-05,-1.026e-05,0.0,0 STARLINK-3574,1 51874U 22022Y   24234.64916041 -.00001026  00000-0 -46360-4 0  9993,2 51874  53.2187  25.6850 0001286 102.5034 257.6102 15.08844494137800,6917.867,95.437,540.621,538.842,0.0
